LANDSAT 9               
1 49260U 21088A   24140.81032965  .00001515  00000+0  34613-3 0  9996
2 49260  98.1878 210.9082 0001124  83.1102 277.0224 14.57115545140556
